NORAD_CAT_ID,OBJECT_NAME,OBJECT_TYPE,EPOCH,MEAN_MOTION,ECCENTRICITY,INCLINATION,RA_OF_ASC_NODE,ARG_OF_PERICENTER,MEAN_ANOMALY,BSTAR,MEAN_MOTION_DOT,MEAN_MOTION_DDOT,TLE_LINE0,TLE_LINE1,TLE_LINE2,SEMIMAJOR_AXIS,PERIOD,APOGEE,PERIGEE,DECAYED
52129.0,STARLINK-3661,PAYLOAD,2022-07-12 22:00:00,15.08859572,0.0001636999999999,53.2134,305.6351,46.6916,144.563,-0.00061562,-0.00010078,0.0,0 STARLINK-3661,1 52129U 22029AT  22193.91667824 -.00010078  00000-0 -61562-3 0  9995,2 52129  53.2134 305.6351 0001637  46.6916 144.5630 15.08859572 19273,6917.821,95.436,540.818,538.553,0.0
52129.0,STARLINK-3661,PAYLOAD,2022-07-13 14:00:01,15.0884908,0.0001695,53.2134,302.6429,50.3499,164.1216,-0.002152,-0.00034383,0.0,0 STARLINK-3661,1 52129U 22029AT  22194.58334491 -.00034383  00000-0 -21520-2 0  9994,2 52129  53.2134 302.6429 0001695  50.3499 164.1216 15.08849080  1304,6917.853,95.437,540.89,538.545,0.0
52129.0,STARLINK-3661,PAYLOAD,2022-07-13 22:00:00,15.08838417,0.0001599,53.213,301.1459,47.2408,178.8187,-0.0018055,-0.00028907,0.0,0 STARLINK-3661,1 52129U 22029AT  22194.91667824 -.00028907  00000-0 -18055-2 0  9994,2 52129  53.2130 301.1459 0001599  47.2408 178.8187 15.08838417  1306,6917.885,95.438,540.856,538.644,0.0
52129.0,STARLINK-3661,PAYLOAD,2022-07-14 06:00:00,15.08815491,0.0001495,53.213,299.6484,54.3623,183.277,0.0024944,0.00039607,0.0,0 STARLINK-3661,1 52129U 22029AT  22195.25001157  .00039607  00000-0  24944-2 0  9994,2 52129  53.2130 299.6484 0001495  54.3623 183.2770 15.08815491 19470,6917.955,95.439,540.855,538.786,0.0
52129.0,STARLINK-3661,PAYLOAD,2022-07-14 14:00:01,15.08835243,0.0001695,53.2129,298.1539,49.0819,200.1356,-0.00059179,-9.693e-05,0.0,0 STARLINK-3661,1 52129U 22029AT  22195.58334491 -.00009693  00000-0 -59179-3 0  9993,2 52129  53.2129 298.1539 0001695  49.0819 200.1356 15.08835243  1302,6917.895,95.438,540.933,538.587,0.0
52129.0,STARLINK-3661,PAYLOAD,2022-07-14 22:00:00,15.08846768,0.000169,53.2126,296.6568,48.7667,212.0375,-0.0029719,-0.00047285,0.0,0 STARLINK-3661,1 52129U 22029AT  22195.91667824 -.00047285  00000-0 -29719-2 0  9994,2 52129  53.2126 296.6568 0001690  48.7667 212.0375 15.08846768 19571,6917.86,95.437,540.894,538.556,0.0
52129.0,STARLINK-3661,PAYLOAD,2022-07-15 14:00:01,15.08826912,0.0001835,53.2125,293.6647,50.1219,233.8437,0.00068347,0.00010602,0.0,0 STARLINK-3661,1 52129U 22029AT  22196.58334491  .00010602  00000-0  68347-3 0  9991,2 52129  53.2125 293.6647 0001835  50.1219 233.8437 15.08826912 19676,6917.92,95.438,541.055,538.516,0.0
52129.0,STARLINK-3661,PAYLOAD,2022-07-15 22:00:00,15.08862022,0.0001761999999999,53.2128,292.1674,48.7735,246.7782,-0.0015788,-0.00025342,0.0,0 STARLINK-3661,1 52129U 22029AT  22196.91667824 -.00025342  00000-0 -15788-2 0  9996,2 52129  53.2128 292.1674 0001762  48.7735 246.7782 15.08862022  1307,6917.813,95.436,540.8969999999998,538.4590000000002,0.0
52129.0,STARLINK-3661,PAYLOAD,2022-07-16 14:00:01,15.08848679,0.0001806,53.2134,289.1752,46.5413,272.2468,-0.0010271,-0.00016601,0.0,0 STARLINK-3661,1 52129U 22029AT  22197.58334491 -.00016601  00000-0 -10271-2 0  9991,2 52129  53.2134 289.1752 0001806  46.5413 272.2468 15.08848679  1302,6917.854,95.437,540.9680000000002,538.469,0.0
52129.0,STARLINK-3661,PAYLOAD,2022-07-16 22:00:00,15.08847576,0.0001671,53.2133,287.6778,43.7248,286.6635,-0.0020359,-0.0003255,0.0,0 STARLINK-3661,1 52129U 22029AT  22197.91667824 -.00032550  00000-0 -20359-2 0  9996,2 52129  53.2133 287.6778 0001671  43.7248 286.6635 15.08847576 19889,6917.857,95.437,540.878,538.566,0.0
52129.0,STARLINK-3661,PAYLOAD,2022-07-17 14:00:01,15.08816495,0.0001740999999999,53.2135,284.6856,41.0102,312.5655,0.00059432,9.177e-05,0.0,0 STARLINK-3661,1 52129U 22029AT  22198.58334491  .00009177  00000-0  59432-3 0  9993,2 52129  53.2135 284.6856 0001741  41.0102 312.5655 15.08816495 19981,6917.9519999999975,95.439,541.0219999999998,538.613,0.0
52129.0,STARLINK-3661,PAYLOAD,2022-07-17 22:00:00,15.08839917,0.0001623,53.2134,283.1881,40.3232,324.8161,-0.0014857999999999,-0.00023857,0.0,0 STARLINK-3661,1 52129U 22029AT  22198.91667824 -.00023857  00000-0 -14858-2 0  9994,2 52129  53.2134 283.1881 0001623  40.3232 324.8161 15.08839917  1306,6917.880999999999,95.438,540.868,538.623,0.0
52129.0,STARLINK-3661,PAYLOAD,2022-07-18 06:00:00,15.08820125,0.0001584,53.2137,281.691,46.2347,330.4548,0.0014639,0.00023074,0.0,0 STARLINK-3661,1 52129U 22029AT  22199.25001157  .00023074  00000-0  14639-2 0  9999,2 52129  53.2137 281.6910 0001584  46.2347 330.4548 15.08820125 20082,6917.941,95.439,540.9019999999998,538.71,0.0
52129.0,STARLINK-3661,PAYLOAD,2022-07-18 14:00:01,15.08819409,0.0001799,53.2136,280.1962,40.8166,347.4559,0.0014515,0.00022875,0.0,0 STARLINK-3661,1 52129U 22029AT  22199.58334491  .00022875  00000-0  14515-2 0  9996,2 52129  53.2136 280.1962 0001799  40.8166 347.4559 15.08819409  1306,6917.943,95.439,541.053,538.564,0.0
52129.0,STARLINK-3661,PAYLOAD,2022-07-18 22:00:00,15.08849726,0.000168,53.2136,278.6983,41.587,358.2646,-0.0012962,-0.00020863,0.0,0 STARLINK-3661,1 52129U 22029AT  22199.91667824 -.00020863  00000-0 -12962-2 0  9993,2 52129  53.2136 278.6983 0001680  41.5870 358.2646 15.08849726  1302,6917.851,95.437,540.878,538.553,0.0
52129.0,STARLINK-3661,PAYLOAD,2022-07-19 06:00:00,15.08850442,0.0001601,53.2136,277.2015,46.173,5.2749,0.00091737,0.00014346,0.0,0 STARLINK-3661,1 52129U 22029AT  22200.25001157  .00014346  00000-0  91737-3 0  9999,2 52129  53.2136 277.2015 0001601  46.1730   5.2749 15.08850442 20235,6917.848000000001,95.437,540.821,538.606,0.0
52129.0,STARLINK-3661,PAYLOAD,2022-07-19 14:00:01,15.08856142,0.0001826,53.2135,275.7065,41.2783,21.7862,-0.00064625,-0.00010563,0.0,0 STARLINK-3661,1 52129U 22029AT  22200.58334491 -.00010563  00000-0 -64625-3 0  9990,2 52129  53.2135 275.7065 0001826  41.2783  21.7862 15.08856142  1304,6917.831,95.437,540.9590000000002,538.433,0.0
52129.0,STARLINK-3661,PAYLOAD,2022-07-19 22:00:00,15.08862881,0.0001781,53.2151,274.2081,42.185,32.4846,-0.0048889,-0.0007731,0.0,0 STARLINK-3661,1 52129U 22029AT  22200.91667824 -.00077310  00000-0 -48889-2 0  9992,2 52129  53.2151 274.2081 0001781  42.1850  32.4846 15.08862881 20331,6917.81,95.436,540.908,538.443,0.0
52129.0,STARLINK-3661,PAYLOAD,2022-07-20 14:00:01,15.08843,0.0001839,53.2132,271.2169,42.4144,55.5049,-0.00027563,-4.673e-05,0.0,0 STARLINK-3661,1 52129U 22029AT  22201.58334491 -.00004673  00000-0 -27563-3 0  9996,2 52129  53.2132 271.2169 0001839  42.4144  55.5049 15.08843000  1306,6917.871,95.437,541.008,538.464,0.0
52129.0,STARLINK-3661,PAYLOAD,2022-07-20 22:00:01,15.08828671,0.0001720999999999,53.213,269.7188,46.3805,63.1969,-0.0013199,-0.00021227,0.0,0 STARLINK-3661,1 52129U 22029AT  22201.91668981 -.00021227  00000-0 -13199-2 0  9990,2 52129  53.2130 269.7188 0001721  46.3805  63.1969 15.08828671  1307,6917.915,95.438,540.971,538.589,0.0
52129.0,STARLINK-3661,PAYLOAD,2022-07-21 06:00:00,15.08830373,0.0001727,53.213,268.2223,50.4953,70.5826,-0.00021544,-3.714e-05,0.0,0 STARLINK-3661,1 52129U 22029AT  22202.25001157 -.00003714  00000-0 -21544-3 0  9999,2 52129  53.2130 268.2223 0001727  50.4953  70.5826 15.08830373 20539,6917.91,95.438,540.97,538.58,0.0
52129.0,STARLINK-3661,PAYLOAD,2022-07-21 14:00:01,15.08803567,0.0001889,53.2137,266.7274,44.4248,88.2988,0.0024655,0.0003913,0.0,0 STARLINK-3661,1 52129U 22029AT  22202.58335648  .00039130  00000-0  24655-2 0  9994,2 52129  53.2137 266.7274 0001889  44.4248  88.2988 15.08803567  1308,6917.9919999999975,95.44,541.164,538.55,0.0
52129.0,STARLINK-3661,PAYLOAD,2022-07-21 22:00:00,15.08828762,0.0001753,53.2146,265.2294,47.6842,96.5471,-0.00020644,-3.571e-05,0.0,0 STARLINK-3661,1 52129U 22029AT  22202.91667824 -.00003571  00000-0 -20644-3 0  9992,2 52129  53.2146 265.2294 0001753  47.6842  96.5471 15.08828762  1302,6917.915,95.438,540.992,538.567,0.0
52129.0,STARLINK-3661,PAYLOAD,2022-07-22 06:00:00,15.08848353,0.0001792,53.215,263.7328,50.8983,104.9116,-0.00053067,-8.726e-05,0.0,0 STARLINK-3661,1 52129U 22029AT  22203.25001157 -.00008726  00000-0 -53067-3 0  9993,2 52129  53.2150 263.7328 0001792  50.8983 104.9116 15.08848353  1301,6917.855,95.437,540.96,538.48,0.0
52129.0,STARLINK-3661,PAYLOAD,2022-07-22 12:00:00,15.08839302,0.0001974,53.2158,262.6123,45.1883,29.3241,0.00019344,2.792e-05,0.0,0 STARLINK-3661,1 52129U 22029AT  22203.50001157  .00002792  00000-0  19344-3 0  9996,2 52129  53.2158 262.6123 0001974  45.1883  29.3241 15.08839302 20728,6917.8830000000025,95.438,541.113,538.382,0.0
52129.0,STARLINK-3661,PAYLOAD,2022-07-22 22:00:00,15.08846119,0.0001789,53.2145,260.74,47.1504,131.8494,-0.00096047,-0.00015544,0.0,0 STARLINK-3661,1 52129U 22029AT  22203.91667824 -.00015544  00000-0 -96047-3 0  9996,2 52129  53.2145 260.7400 0001789  47.1504 131.8494 15.08846119  1303,6917.861999999999,95.437,540.964,538.489,0.0
52129.0,STARLINK-3661,PAYLOAD,2022-07-23 14:00:01,15.08804291,0.0001958,53.2146,257.7488,41.697,160.5664,0.0031612,0.00050333,0.0,0 STARLINK-3661,1 52129U 22029AT  22204.58335648  .00050333  00000-0  31612-2 0  9995,2 52129  53.2146 257.7488 0001958  41.6970 160.5664 15.08804291  1303,6917.99,95.44,541.2090000000002,538.5,0.0
52129.0,STARLINK-3661,PAYLOAD,2022-07-23 22:00:00,15.08829542,0.0001803,53.2147,256.2507,44.8143,168.9683,0.00085972,0.00013417,0.0,0 STARLINK-3661,1 52129U 22029AT  22204.91667824  .00013417  00000-0  85972-3 0  9997,2 52129  53.2147 256.2507 0001803  44.8143 168.9683 15.08829542  1305,6917.9119999999975,95.438,541.025,538.53,0.0
52129.0,STARLINK-3661,PAYLOAD,2022-07-24 06:00:00,15.08853698,0.0001869,53.2147,254.7547,47.3522,178.0102,-0.0011025,-0.00017798,0.0,0 STARLINK-3661,1 52129U 22029AT  22205.25001157 -.00017798  00000-0 -11025-2 0  9991,2 52129  53.2147 254.7547 0001869  47.3522 178.0102 15.08853698 20985,6917.839,95.437,540.996,538.411,0.0
